[{"OBJECT_NAME":"GEESAT-5 04","OBJECT_ID":"2025-201D","EPOCH":"2026-03-09T16:43:55.713504","MEAN_MOTION":14.83246281,"ECCENTRICITY":0.00110249,"INCLINATION":49.9844,"RA_OF_ASC_NODE":141.1656,"ARG_OF_PERICENTER":244.2414,"MEAN_ANOMALY":115.7387,"EPHEMERIS_TYPE":0,"CLASSIFICATION_TYPE":"U","NORAD_CAT_ID":65553,"ELEMENT_SET_NO":999,"REV_AT_EPOCH":2701,"BSTAR":0.00027420324,"MEAN_MOTION_DOT":2.041e-5,"MEAN_MOTION_DDOT":0},{"OBJECT_NAME":"SL-8 DEB","OBJECT_ID":"1979-060D","EPOCH":"2026-03-09T09:25:05.204640","MEAN_MOTION":14.86930675,"ECCENTRICITY":0.00050342,"INCLINATION":73.9946,"RA_OF_ASC_NODE":163.6961,"ARG_OF_PERICENTER":325.1797,"MEAN_ANOMALY":153.745,"EPHEMERIS_TYPE":0,"CLASSIFICATION_TYPE":"U","NORAD_CAT_ID":15784,"ELEMENT_SET_NO":999,"REV_AT_EPOCH":17761,"BSTAR":0.00073619835,"MEAN_MOTION_DOT":6.554e-5,"MEAN_MOTION_DDOT":0}]
